*******************************************************************************
Ephemeris / WWW_USER Mon Jul 15 19:34:45 2024 Pasadena, USA      / Horizons    
*******************************************************************************
Target body name: (2015 BP519)                    {source: JPL#11}
Center body name: Earth (399)                     {source: DE441}
Center-site name: Gemini South Obs., Cerro Pachon
*******************************************************************************
Start time      : A.D. 2018-Nov-14 23:25:00.0000 UT      
Stop  time      : A.D. 2018-Nov-15 09:29:00.0000 UT      
Step-size       : 1 minutes
*******************************************************************************
Target pole/equ : undefined
Target radii    : undefined                                                    
Center geodetic : 289.2634, -30.2406227, 2.71233  {E-lon(deg),Lat(deg),Alt(km)}
Center cylindric: 289.2634,5517.21435,-3194.81213 {E-lon(deg),Dxy(km),Dz(km)}
Center pole/equ : ITRF93                          {East-longitude positive}
Center radii    : 6378.137, 6378.137, 6356.752 km {Equator_a, b, pole_c}       
Target primary  : Sun
Vis. interferer : MOON (R_eq= 1737.400) km        {source: DE441}
Rel. light bend : Sun                             {source: DE441}
Rel. lght bnd GM: 1.3271E+11 km^3/s^2                                          
Small-body perts: Yes                             {source: SB441-N16}
Atmos refraction: NO (AIRLESS)
RA format       : HMS
Time format     : CAL 
Calendar mode   : Mixed Julian/Gregorian
RTS-only print  : NO       
EOP file        : eop.240715.p241008                                           
EOP coverage    : DATA-BASED 1962-JAN-20 TO 2024-JUL-15. PREDICTS-> 2024-OCT-07
Units conversion: 1 au= 149597870.700 km, c= 299792.458 km/s, 1 day= 86400.0 s 
Table cut-offs 1: Elevation (-90.0deg=NO ),Airmass (>38.000=NO), Daylight (YES)
Table cut-offs 2: Solar elongation (  0.0,180.0=NO ),Local Hour Angle( 0.0=NO )
Table cut-offs 3: RA/DEC angular rate (     0.0=NO )                           
*******************************************************************************
Initial IAU76/J2000 heliocentric ecliptic osculating elements (au, days, deg.):
  EPOCH=  2459185.5 ! 2020-Dec-02.00 (TDB)         Residual RMS= .076636       
   EC= .9196800569382362   QR= 35.27062259520413   TP= 2473034.2681888649      
   OM= 135.0361763364557   W=  348.1354702472351   IN= 54.13300168900849       
  Equivalent ICRF heliocentric cartesian coordinates (au, au/d):
   X= 1.527332710437156E+01  Y= 4.057000090505051E+01  Z=-2.695001507835700E+01
  VX=-2.654302427537234E-03 VY= 4.512065776218028E-05 VZ= 1.968031006040699E-03
Asteroid physical parameters (km, seconds, rotational period in hours):        
   GM= n.a.                RAD= n.a.               ROTPER= n.a.                
   H= 4.34                 G= .150                 B-V= n.a.                   
                           ALBEDO= n.a.            STYP= n.a.                  
*******************************************************************************
 Date__(UT)__HR:MN     R.A._________(ICRF)_________DEC
******************************************************
$$SOE
 2018-Nov-15 03:31  m  04 29 12.183631 -33 39 09.39325
 2018-Nov-15 03:32  m  04 29 12.180472 -33 39 09.40523
 2018-Nov-15 03:33  m  04 29 12.177313 -33 39 09.41720
 2018-Nov-15 03:34  m  04 29 12.174154 -33 39 09.42918
 2018-Nov-15 03:35  m  04 29 12.170995 -33 39 09.44115
 2018-Nov-15 03:36  m  04 29 12.167835 -33 39 09.45312
 2018-Nov-15 03:37  m  04 29 12.164676 -33 39 09.46508
 2018-Nov-15 03:38  m  04 29 12.161516 -33 39 09.47705
 2018-Nov-15 03:39  m  04 29 12.158356 -33 39 09.48902
 2018-Nov-15 03:40  m  04 29 12.155196 -33 39 09.50098
 2018-Nov-15 03:41  m  04 29 12.152036 -33 39 09.51294
 2018-Nov-15 03:42  m  04 29 12.148876 -33 39 09.52490
 2018-Nov-15 03:43  m  04 29 12.145716 -33 39 09.53685
 2018-Nov-15 03:44  m  04 29 12.142555 -33 39 09.54881
 2018-Nov-15 03:45  m  04 29 12.139395 -33 39 09.56076
 2018-Nov-15 03:46  m  04 29 12.136234 -33 39 09.57271
 2018-Nov-15 03:47  m  04 29 12.133073 -33 39 09.58466
 2018-Nov-15 03:48  m  04 29 12.129912 -33 39 09.59661
 2018-Nov-15 03:49  m  04 29 12.126751 -33 39 09.60856
 2018-Nov-15 03:50  m  04 29 12.123590 -33 39 09.62050
 2018-Nov-15 03:51  m  04 29 12.120429 -33 39 09.63245
 2018-Nov-15 03:52  m  04 29 12.117268 -33 39 09.64439
 2018-Nov-15 03:53  m  04 29 12.114106 -33 39 09.65633
 2018-Nov-15 03:54  m  04 29 12.110945 -33 39 09.66826
 2018-Nov-15 03:55  m  04 29 12.107783 -33 39 09.68020
 2018-Nov-15 03:56  m  04 29 12.104621 -33 39 09.69213
 2018-Nov-15 03:57  m  04 29 12.101459 -33 39 09.70406
 2018-Nov-15 03:58  m  04 29 12.098297 -33 39 09.71599
 2018-Nov-15 03:59  m  04 29 12.095135 -33 39 09.72792
 2018-Nov-15 04:00  m  04 29 12.091973 -33 39 09.73984
 2018-Nov-15 04:01  m  04 29 12.088811 -33 39 09.75177
 2018-Nov-15 04:02  m  04 29 12.085648 -33 39 09.76369
 2018-Nov-15 04:03  m  04 29 12.082486 -33 39 09.77561
 2018-Nov-15 04:04  m  04 29 12.079323 -33 39 09.78753
 2018-Nov-15 04:05  m  04 29 12.076160 -33 39 09.79945
 2018-Nov-15 04:06  m  04 29 12.072997 -33 39 09.81136
 2018-Nov-15 04:07  m  04 29 12.069834 -33 39 09.82327
 2018-Nov-15 04:08  m  04 29 12.066671 -33 39 09.83518
 2018-Nov-15 04:09  m  04 29 12.063508 -33 39 09.84709
 2018-Nov-15 04:10  m  04 29 12.060345 -33 39 09.85900
 2018-Nov-15 04:11  m  04 29 12.057182 -33 39 09.87091
 2018-Nov-15 04:12  m  04 29 12.054018 -33 39 09.88281
 2018-Nov-15 04:13  m  04 29 12.050855 -33 39 09.89471
 2018-Nov-15 04:14  m  04 29 12.047691 -33 39 09.90661
 2018-Nov-15 04:15  m  04 29 12.044527 -33 39 09.91851
 2018-Nov-15 04:16  m  04 29 12.041364 -33 39 09.93040
 2018-Nov-15 04:17  m  04 29 12.038200 -33 39 09.94230
 2018-Nov-15 04:18  m  04 29 12.035036 -33 39 09.95419
 2018-Nov-15 04:19  m  04 29 12.031872 -33 39 09.96608
 2018-Nov-15 04:20  m  04 29 12.028708 -33 39 09.97797
 2018-Nov-15 04:21  m  04 29 12.025543 -33 39 09.98985
 2018-Nov-15 04:22  m  04 29 12.022379 -33 39 10.00174
 2018-Nov-15 04:23  m  04 29 12.019215 -33 39 10.01362
 2018-Nov-15 04:24  m  04 29 12.016050 -33 39 10.02550
 2018-Nov-15 04:25  m  04 29 12.012886 -33 39 10.03738
 2018-Nov-15 04:26  m  04 29 12.009721 -33 39 10.04925
 2018-Nov-15 04:27  m  04 29 12.006556 -33 39 10.06113
 2018-Nov-15 04:28  m  04 29 12.003391 -33 39 10.07300
 2018-Nov-15 04:29  m  04 29 12.000226 -33 39 10.08487
 2018-Nov-15 04:30  m  04 29 11.997061 -33 39 10.09674
 2018-Nov-15 04:31  m  04 29 11.993896 -33 39 10.10861
 2018-Nov-15 04:32  m  04 29 11.990731 -33 39 10.12047
 2018-Nov-15 04:33  m  04 29 11.987566 -33 39 10.13233
 2018-Nov-15 04:34  m  04 29 11.984401 -33 39 10.14419
 2018-Nov-15 04:35  m  04 29 11.981235 -33 39 10.15605
 2018-Nov-15 04:36  m  04 29 11.978070 -33 39 10.16791
 2018-Nov-15 04:37  m  04 29 11.974905 -33 39 10.17977
 2018-Nov-15 04:38  m  04 29 11.971739 -33 39 10.19162
 2018-Nov-15 04:39  m  04 29 11.968573 -33 39 10.20347
 2018-Nov-15 04:40  m  04 29 11.965408 -33 39 10.21532
 2018-Nov-15 04:41  m  04 29 11.962242 -33 39 10.22717
 2018-Nov-15 04:42  m  04 29 11.959076 -33 39 10.23901
 2018-Nov-15 04:43  m  04 29 11.955910 -33 39 10.25085
 2018-Nov-15 04:44  m  04 29 11.952744 -33 39 10.26270
 2018-Nov-15 04:45  m  04 29 11.949578 -33 39 10.27454
 2018-Nov-15 04:46  m  04 29 11.946412 -33 39 10.28637
 2018-Nov-15 04:47  m  04 29 11.943246 -33 39 10.29821
 2018-Nov-15 04:48  m  04 29 11.940080 -33 39 10.31004
 2018-Nov-15 04:49  m  04 29 11.936913 -33 39 10.32187
 2018-Nov-15 04:50  m  04 29 11.933747 -33 39 10.33370
 2018-Nov-15 04:51  m  04 29 11.930581 -33 39 10.34553
 2018-Nov-15 04:52  m  04 29 11.927414 -33 39 10.35736
 2018-Nov-15 04:53  m  04 29 11.924248 -33 39 10.36918
 2018-Nov-15 04:54  m  04 29 11.921081 -33 39 10.38100
 2018-Nov-15 04:55  m  04 29 11.917914 -33 39 10.39282
 2018-Nov-15 04:56  m  04 29 11.914748 -33 39 10.40464
 2018-Nov-15 04:57  m  04 29 11.911581 -33 39 10.41645
 2018-Nov-15 04:58  m  04 29 11.908414 -33 39 10.42827
 2018-Nov-15 04:59  m  04 29 11.905247 -33 39 10.44008
 2018-Nov-15 05:00  m  04 29 11.902080 -33 39 10.45189
 2018-Nov-15 05:01  m  04 29 11.898914 -33 39 10.46370
 2018-Nov-15 05:02  m  04 29 11.895747 -33 39 10.47550
 2018-Nov-15 05:03  m  04 29 11.892580 -33 39 10.48731
 2018-Nov-15 05:04  m  04 29 11.889412 -33 39 10.49911
 2018-Nov-15 05:05  m  04 29 11.886245 -33 39 10.51091
 2018-Nov-15 05:06  m  04 29 11.883078 -33 39 10.52271
 2018-Nov-15 05:07  m  04 29 11.879911 -33 39 10.53450
 2018-Nov-15 05:08  m  04 29 11.876744 -33 39 10.54630
 2018-Nov-15 05:09  m  04 29 11.873576 -33 39 10.55809
 2018-Nov-15 05:10  m  04 29 11.870409 -33 39 10.56988
 2018-Nov-15 05:11  m  04 29 11.867242 -33 39 10.58167
 2018-Nov-15 05:12  m  04 29 11.864074 -33 39 10.59345
 2018-Nov-15 05:13  m  04 29 11.860907 -33 39 10.60524
 2018-Nov-15 05:14  m  04 29 11.857739 -33 39 10.61702
 2018-Nov-15 05:15  m  04 29 11.854572 -33 39 10.62880
 2018-Nov-15 05:16  m  04 29 11.851404 -33 39 10.64058
 2018-Nov-15 05:17  m  04 29 11.848237 -33 39 10.65235
 2018-Nov-15 05:18  m  04 29 11.845069 -33 39 10.66413
 2018-Nov-15 05:19  m  04 29 11.841902 -33 39 10.67590
 2018-Nov-15 05:20  m  04 29 11.838734 -33 39 10.68767
 2018-Nov-15 05:21     04 29 11.835566 -33 39 10.69943
 2018-Nov-15 05:22     04 29 11.832398 -33 39 10.71120
 2018-Nov-15 05:23     04 29 11.829231 -33 39 10.72296
 2018-Nov-15 05:24     04 29 11.826063 -33 39 10.73473
 2018-Nov-15 05:25     04 29 11.822895 -33 39 10.74649
 2018-Nov-15 05:26     04 29 11.819727 -33 39 10.75824
 2018-Nov-15 05:27     04 29 11.816559 -33 39 10.77000
 2018-Nov-15 05:28     04 29 11.813392 -33 39 10.78175
 2018-Nov-15 05:29     04 29 11.810224 -33 39 10.79351
 2018-Nov-15 05:30     04 29 11.807056 -33 39 10.80526
 2018-Nov-15 05:31     04 29 11.803888 -33 39 10.81700
 2018-Nov-15 05:32     04 29 11.800720 -33 39 10.82875
 2018-Nov-15 05:33     04 29 11.797552 -33 39 10.84049
